[{"OBJECT_NAME":"GAOFEN-9 03","OBJECT_ID":"2020-039A","EPOCH":"2026-03-09T21:55:15.121344","MEAN_MOTION":15.30529116,"ECCENTRICITY":0.0013094,"INCLINATION":97.5219,"RA_OF_ASC_NODE":201.2158,"ARG_OF_PERICENTER":77.4533,"MEAN_ANOMALY":282.8172,"EPHEMERIS_TYPE":0,"CLASSIFICATION_TYPE":"U","NORAD_CAT_ID":45794,"ELEMENT_SET_NO":999,"REV_AT_EPOCH":31856,"BSTAR":0.00039258132,"MEAN_MOTION_DOT":0.00011544,"MEAN_MOTION_DDOT":0},{"OBJECT_NAME":"STARLINK-35549","OBJECT_ID":"2025-237AB","EPOCH":"2026-03-09T07:08:41.045856","MEAN_MOTION":15.30194621,"ECCENTRICITY":0.00012771,"INCLINATION":53.1611,"RA_OF_ASC_NODE":41.2195,"ARG_OF_PERICENTER":85.3539,"MEAN_ANOMALY":274.7608,"EPHEMERIS_TYPE":0,"CLASSIFICATION_TYPE":"U","NORAD_CAT_ID":66139,"ELEMENT_SET_NO":999,"REV_AT_EPOCH":2255,"BSTAR":0.0010537818,"MEAN_MOTION_DOT":0.00030976,"MEAN_MOTION_DDOT":0}]
